OBJECT_NAME,OBJECT_ID,EPOCH,MEAN_MOTION,ECCENTRICITY,INCLINATION,RA_OF_ASC_NODE,ARG_OF_PERICENTER,MEAN_ANOMALY,EPHEMERIS_TYPE,CLASSIFICATION_TYPE,NORAD_CAT_ID,ELEMENT_SET_NO,REV_AT_EPOCH,BSTAR,MEAN_MOTION_DOT,MEAN_MOTION_DDOT
STARLINK-5518,2023-064X,2026-06-11T14:47:16.269792,14.98330539,.00031614,69.9989,247.8294,267.4770,92.6027,0,U,56469,999,16980,-.45174716E-4,-.632E-5,0
STARLINK-5523,2023-064Y,2026-06-11T16:11:21.291936,14.98345444,.00032297,69.9986,247.6305,273.1579,86.9210,0,U,56470,999,16981,.12290866E-3,.1374E-4,0
STARLINK-5521,2023-064Z,2026-06-11T15:59:21.653376,14.98323802,.00033069,69.9985,247.6014,271.0339,89.0441,0,U,56471,999,16981,-.9687204E-4,-.1249E-4,0
STARLINK-5038,2023-064AA,2026-06-11T15:47:20.282496,14.98330149,.00032712,69.9987,247.5739,268.9250,91.1534,0,U,56472,999,16981,.11051012E-4,.39E-6,0
STARLINK-5524,2023-064AC,2026-06-11T16:17:23.505792,14.98330589,.00032163,69.9992,247.6466,267.5970,92.4821,0,U,56474,999,16981,-.41766545E-4,-.591E-5,0
STARLINK-5541,2023-064AD,2026-06-11T15:41:18.676896,14.98340226,.00034145,69.9985,247.5556,268.5692,91.5076,0,U,56475,999,16981,.74794413E-4,.8E-5,0
STARLINK-5545,2023-064AE,2026-06-11T15:53:20.876352,14.98331095,.00032085,69.9987,247.5865,270.2563,89.8229,0,U,56476,999,16981,-.17162741E-4,-.298E-5,0
STARLINK-5534,2023-064AF,2026-06-11T15:17:31.574400,14.98327801,.00033017,69.9991,247.4988,270.2328,89.8453,0,U,56477,999,16981,-.46951481E-4,-.653E-5,0
STARLINK-6041,2023-064AG,2026-06-11T15:35:18.963456,14.98330918,.00033333,69.9986,247.5425,268.0339,92.0438,0,U,56478,999,16981,-.20985051E-4,-.343E-5,0
STARLINK-6044,2023-064AH,2026-06-11T22:59:55.825728,14.98338203,.00032564,69.9989,246.6116,268.2106,91.8680,0,U,56479,999,16986,.9364185E-4,.1025E-4,0
STARLINK-6214,2023-064AJ,2026-06-11T12:08:22.100640,15.36630859,.0004015,69.9906,204.6772,284.4304,75.6429,0,U,56480,999,17087,.24887E-3,.8801E-4,0
STARLINK-6222,2023-064AK,2026-06-11T15:11:16.788480,14.98334477,.0003015,69.9993,247.4828,270.3470,89.7343,0,U,56481,999,16981,-.1081758E-3,-.1384E-4,0
STARLINK-6220,2023-064AL,2026-06-11T15:29:18.512160,14.98322831,.00032763,69.9987,247.5275,272.0565,88.0219,0,U,56482,999,16981,-.12529401E-3,-.1587E-4,0
STARLINK-5868,2023-064AM,2026-06-11T15:23:17.729952,14.98328782,.00032666,69.9989,247.5090,269.0080,91.0705,0,U,56483,999,16981,.9531539E-5,.21E-6,0
STARLINK-6221,2023-064AN,2026-06-12T00:00:02.999808,14.98316281,.00034317,70.0008,246.5812,266.2848,251.4290,0,U,56484,999,563,.19148748E-2,.22822E-3,0
STARLINK-6210,2023-064AP,2026-06-11T14:53:14.490240,14.98330837,.00031892,69.9991,247.4387,269.3659,90.7135,0,U,56485,999,16981,-.58680806E-4,-.793E-5,0
STARLINK-6196,2023-064AR,2026-06-11T14:28:55.462944,14.98288056,.00031187,69.9984,227.5145,268.4688,91.6113,0,U,56487,999,17030,-.32214682E-3,-.3931E-4,0
STARLINK-6204,2023-064AS,2026-06-11T13:52:51.115296,14.98327718,.0003324,69.9989,227.8250,269.4843,90.5935,0,U,56488,999,17029,-.10452E-4,-.218E-5,0
STARLINK-5923,2023-064AT,2026-06-11T13:34:49.242144,14.98326495,.0003577,69.9987,227.7804,266.1465,93.9285,0,U,56489,999,17029,.89391E-4,.974E-5,0
STARLINK-5873,2023-064AU,2026-06-11T14:04:52.336704,14.98328538,.0003296,69.9988,227.8524,266.7246,93.3535,0,U,56490,999,17029,.15257E-4,.89E-6,0
STARLINK-5842,2023-064AV,2026-06-11T13:28:48.306144,14.98330136,.0003375,69.9988,227.7656,267.8182,92.2590,0,U,56491,999,17029,-.40225E-4,-.573E-5,0
STARLINK-5846,2023-064AW,2026-06-11T13:22:48.235008,14.98322144,.0002908,69.9995,227.7527,263.9447,96.1381,0,U,56492,999,17029,-.29522E-5,-.128E-5,0
STARLINK-5841,2023-064AX,2026-06-11T13:04:26.393088,14.98335640,.0003548,69.9985,207.8241,268.7206,91.3547,0,U,56493,999,17078,-.33586E-4,-.494E-5,0
STARLINK-5530,2023-064AY,2026-06-11T13:23:02.012352,14.98325284,.0003482,69.9984,227.7514,270.3216,89.7544,0,U,56494,999,17028,.72885E-4,.777E-5,0
STARLINK-5529,2023-064AZ,2026-06-11T14:46:55.099200,14.98323906,.00031288,69.9984,227.5532,268.9665,91.1136,0,U,56495,999,17030,.9734071E-5,.23E-6,0
STARLINK-5526,2023-064BA,2026-06-11T14:40:53.747616,14.98330264,.00040038,69.9986,227.5389,268.8204,91.2497,0,U,56496,999,17030,-.4147427E-5,-.143E-5,0
STARLINK-5527,2023-064BB,2026-06-11T14:35:07.543680,14.98307575,.00034297,69.9987,227.5252,273.3481,86.7286,0,U,56497,999,17030,.17428493E-3,.1986E-4,0
STARLINK-5522,2023-064BC,2026-06-11T14:52:55.004448,14.98331313,.00033318,69.9986,227.5682,268.3695,91.7083,0,U,56498,999,17030,-.6648526E-5,-.172E-5,0
STARLINK-5775,2023-065A,2026-06-11T22:07:05.401056,15.27575970,.00016497,43.0061,40.1153,259.8278,100.2388,0,U,56503,999,17101,.13467552E-4,.108E-5,0
STARLINK-5716,2023-065B,2026-06-10T22:55:06.759840,15.27573677,.00021767,43.0038,45.7577,263.9259,96.1345,0,U,56504,999,17086,.13292467E-4,.103E-5,0
STARLINK-5763,2023-065C,2026-06-11T08:57:03.719808,15.27577596,.0000958,43.0033,43.7291,248.1260,111.9490,0,U,56505,999,17092,.10082E-3,.2513E-4,0
STARLINK-5340,2023-065D,2026-06-11T08:31:08.653728,15.27575134,.0001806,43.0145,32.2874,267.5161,92.5484,0,U,56506,999,17105,-.12061E-5,-.296E-5,0
STARLINK-5333,2023-065E,2026-06-11T07:23:08.279808,15.27586236,.0001858,43.0057,11.0254,281.0576,79.0066,0,U,56507,999,17129,.10655E-4,.31E-6,0
STARLINK-5335,2023-065F,2026-06-11T09:13:28.692768,15.27580169,.0001266,43.0077,42.9595,272.6892,87.3814,0,U,56508,999,17093,.25652E-4,.444E-5,0
STARLINK-5334,2023-065G,2026-06-10T09:57:47.162016,15.27577687,.00016123,43.0076,48.5814,261.9707,98.0962,0,U,56509,999,17078,.19797205E-4,.282E-5,0
STARLINK-5339,2023-065H,2026-06-11T09:19:01.903008,15.27570672,.0001016,43.0114,42.9929,273.7176,86.3559,0,U,56510,999,17093,-.12616E-3,-.3731E-4,0
STARLINK-5351,2023-065J,2026-06-10T22:40:17.252832,15.27580670,.00014517,43.0059,45.6728,272.1819,87.8867,0,U,56511,999,17086,.32044012E-4,.62E-5,0
STARLINK-5349,2023-065K,2026-06-11T09:24:34.707168,15.27578326,.0001855,43.0059,43.0044,252.2037,107.8613,0,U,56512,999,17093,.90611E-5,-.13E-6,0
STARLINK-5329,2023-065L,2026-06-10T22:45:50.614272,15.27577011,.00016579,43.0037,45.7039,271.0200,89.0462,0,U,56513,999,17086,.12344114E-4,.77E-6,0
STARLINK-5348,2023-065N,2026-06-10T22:51:23.483232,15.27577681,.00015415,43.0015,45.7301,264.8273,95.2403,0,U,56515,999,17086,.17917665E-4,.231E-5,0
STARLINK-5342,2023-065P,2026-06-10T22:36:35.320608,15.27579533,.0001547,43.0064,45.6581,264.8738,95.1937,0,U,56516,999,17086,.2740021E-4,.492E-5,0
STARLINK-5345,2023-065Q,2026-06-10T09:00:38.013408,15.27573288,.00018159,43.0002,49.1283,278.4233,81.6412,0,U,56517,999,17077,-.14545969E-4,-.662E-5,0
STARLINK-5346,2023-065R,2026-06-10T22:56:56.799744,15.27578155,.00011975,43.0045,45.7598,262.2598,97.8117,0,U,56518,999,17086,.19939018E-4,.287E-5,0
STARLINK-6313,2023-065S,2026-06-11T08:42:14.452992,15.27574012,.0000978,43.0034,43.6365,228.2622,131.8146,0,U,56519,999,17092,.54771E-5,-.111E-5,0
STARLINK-6344,2023-065T,2026-06-10T23:02:29.526144,15.27570256,.00012421,43.0037,45.7830,264.7975,95.2735,0,U,56520,999,17086,.19732277E-4,.281E-5,0
STARLINK-6333,2023-065U,2026-06-11T08:45:13.598208,15.27577815,.0001048,43.0061,47.0584,252.9028,107.1709,0,U,56521,999,17088,.16434E-4,.19E-5,0
STARLINK-6327,2023-065V,2026-06-10T09:04:18.137280,15.27593072,.0001071,42.9975,49.1522,267.4092,92.6637,0,U,56522,999,17077,.10975166E-3,.2761E-4,0
STARLINK-6328,2023-065W,2026-06-11T13:50:36.803040,15.27583418,.0001322,43.0060,42.6692,264.6326,95.4375,0,U,56523,999,17095,-.16349E-4,-.712E-5,0
STARLINK-6323,2023-065X,2026-06-10T23:33:57.055968,15.27575589,.00011124,43.0050,45.9471,259.9186,100.1540,0,U,56524,999,17086,.61599E-7,-.26E-5,0
STARLINK-6329,2023-065Y,2026-06-11T09:26:33.659232,15.26751998,.0001822,42.9982,54.0802,282.8562,77.2085,0,U,56525,999,17080,.3494E-3,.9127E-4,0
STARLINK-6317,2023-065Z,2026-06-11T09:04:26.486112,15.27574809,.0001044,43.0082,43.7577,266.5152,93.5580,0,U,56526,999,17092,.43002E-7,-.261E-5,0
STARLINK-6335,2023-065AA,2026-06-10T09:14:44.770560,15.27567645,.00012716,43.0021,52.6019,264.7736,95.2971,0,U,56527,999,17073,-.18656276E-4,-.775E-5,0
STARLINK-6337,2023-065AB,2026-06-10T23:11:02.175360,15.27576579,.00012836,43.0005,49.2230,269.4408,90.6296,0,U,56528,999,17082,.15705754E-4,.17E-5,0
STARLINK-6307,2023-065AC,2026-06-11T08:51:30.333312,15.27579685,.0001613,43.0057,32.3967,281.9528,78.1143,0,U,56529,999,17105,.1922E-4,.267E-5,0
STARLINK-6318,2023-065AD,2026-06-10T22:22:44.593248,15.27574695,.00014216,43.0068,20.4075,280.6400,79.4292,0,U,56530,999,17115,.8299268E-5,-.34E-6,0
STARLINK-6280,2023-065AE,2026-06-10T22:26:25.302048,15.27577218,.00012038,43.0036,31.7347,269.6727,90.3986,0,U,56531,999,17102,.18706908E-4,.253E-5,0
STARLINK-6319,2023-065AF,2026-06-11T07:40:15.934368,15.27577999,.0000729,43.0052,29.4614,255.4431,104.6340,0,U,56532,999,17108,.71045E-5,-.66E-6,0
STARLINK-6310,2023-065AG,2026-06-10T21:54:57.813696,15.27580931,.00014316,43.0041,31.5783,280.4983,79.5707,0,U,56533,999,17102,.17206134E-4,.211E-5,0
STARLINK-6308,2023-065AH,2026-06-11T07:45:48.564864,15.27576825,.0001227,43.0003,29.4988,268.7407,91.3304,0,U,56534,999,17108,.42064E-5,-.146E-5,0
STARLINK-6309,2023-065AJ,2026-06-10T23:29:20.220864,15.27573997,.0002207,43.0070,59.7968,269.4454,90.6145,0,U,56535,999,17070,.68898845E-4,.1634E-4,0
STARLINK-6312,2023-065AK,2026-06-10T23:49:40.461024,15.27576457,.00014766,43.0041,59.9006,271.1947,88.8736,0,U,56536,999,17070,.11613791E-4,.57E-6,0
STARLINK-6311,2023-065AL,2026-06-10T00:02:31.296768,15.27579096,.00017005,43.0068,65.3641,271.6976,88.3681,0,U,56537,999,17055,.2128301E-4,.323E-5,0
STARLINK-6314,2023-065AM,2026-06-10T23:34:40.493568,15.27578162,.0001179,43.0050,31.2305,263.5624,96.5094,0,U,56538,999,17103,.18499687E-4,.247E-5,0
STARLINK-6135,2023-065AN,2026-06-11T09:25:42.852576,15.27578709,.0001166,43.0056,57.7428,255.2335,104.8387,0,U,56539,999,17076,.31396E-4,.602E-5,0
STARLINK-6136,2023-065AP,2026-06-11T23:38:40.485984,15.27576944,.00009577,43.0049,54.4471,262.8120,97.2623,0,U,56540,999,17085,.16604394E-4,.195E-5,0
